COSMOS 1726 R/B 
1 16496U 86006  B 95010.71360897  .00000097  00000-0  13130-4 0  5626 
2 16496  82.5269  97.1171 0022477  16.4900 343.7030 14.78719061484109 
MIR 
1 16609U 86017  A 95013.22509275  .00006077  00000-0  84426-4 0  8935 
2 16609  51.6468 214.4632 0002182 142.4471 217.6719 15.58521188508754 
SPOT 1 VIKING DEB 
1 16615U 86019  C 95010.20277571  .00000398  00000-0  14920-3 0  9684 
2 16615  98.4172  76.3624 0020374 269.7681  90.1167 14.36740804463469 
COSMOS 1766 R/B 
1 16882U 86055  B 95012.20254751  .00000111  00000-0  15442-4 0  4596 
2 16882  82.5216 312.4067 0020783 306.9993  52.9313 14.77745593455620 
COSMOS 1812 
1 17295U 87003  A 95011.22152714  .00000261  00000-0  30411-4 0  3651 
2 17295  82.5318  83.6767 0020109  76.1151 284.2284 14.85249331431607 
COSMOS 1833 
1 17589U 87027  A 95012.31583335  .00000285  00000-0  18008-3 0  3766 
2 17589  70.9254 116.5265 0003144 110.2002 249.9454 14.12551635403404 
COSMOS 1833 R/B 
1 17590U 87027  B 95010.76358995 -.00000238  00000-0 -97170-4 0  3866 
2 17590  70.9998 111.2022 0005470 211.1081 148.9716 14.15679325404024 
COSMOS 1844 
1 17973U 87041  A 95013.12882524 -.00000294  00000-0 -13234-3 0  3916 
2 17973  70.8940 241.3736 0009733 154.8281 205.3316 14.12821147395675 
COSMOS 1844 R/B 
1 17974U 87041  B 95011.69827997  .00000097  00000-0  73249-4 0  2810 
2 17974  71.0029 236.1883 0015627 290.9832  68.9611 14.16152427396376 
COSMOS 1862 R/B 
1 18153U 87055  B 95010.48050151  .00000102  00000-0  10898-4 0  3663 
2 18153  82.4970 207.7435 0024241 341.4785  18.5540 14.77930985405750 
COSMOS 1867 
1 18187U 87060  A 95011.69555670  .00000006  00000-0  24715-5 0  2831 
2 18187  65.0071 100.4954 0019268 254.8710 105.0243 14.30079971392013 
COSMOS 1908 R/B 
1 18749U 88001B   95012.54180777  .00000089  00000-0  91786-5 0  3652 
2 18749  82.5141  31.7121 0019647 200.0707 159.9730 14.77906000378208 
COSMOS 1933 
1 18958U 88020  A 95012.86907364  .00000325  00000-0  36958-4 0   636 
2 18958  82.5378 327.5298 0019200  24.5037 335.7084 14.82977408368743 
IRS 1A R/B 
1 18961U 88021B   95013.14135472 -.00000422  00000-0 -25449-3 0  3686 
2 18961  98.7121  52.5033 0052629 217.9947 141.7498 14.00296099348791 
COSMOS 1939 
1 19045U 88032  A 95011.68162505  .00000280  00000-0  26736-4 0  1832 
2 19045  97.6390  65.7648 0020844 218.9786 140.9923 14.93160463365278 
COSMOS 1939 R/B 
1 19046U 88032B   95009.24768336  .00000178  00000-0  28411-4 0  4635 
2 19046  97.6550  37.5667 0048792 209.6260 150.2189 14.82175856350093 
COSMOS 1943 R/B 
1 19120U 88039  B 95011.87164136 -.00000229  00000-0 -88511-4 0  6969 
2 19120  71.0096 334.8948 0022507 137.1824 223.1057 14.17735325344693 
COSMOS 1954 R/B 
1 19257U 88053  B 95012.35656101  .00000012  00000-0  13680-4 0  2642 
2 19257  74.0510 115.1040 0022507  98.0874 262.2831 14.33622496343090 
COSMOS 1980 R/B 
1 19650U 88102  B 95009.80084427  .00000331  00000-0  19572-3 0  3781 
2 19650  70.9938 314.6081 0012434  41.4070 318.7996 14.14876124316531 
COSMOS 1985 DEB 
1 19764U 88113  H 95011.68513133  .00000934  00000-0  31906-4 0  4011 
2 19764  73.5325  79.9721 0006163 210.3979 149.6863 15.32451746336957 
INTERCOSMOS 24 
1 20261U 89080A   95010.68342207  .00000141  00000-0  35463-4 0  3785 
2 20261  82.5932 245.0524 1243202 151.8934 215.5394 12.47210746240648 
INTERCOSMOS 24 R/B 
1 20262U 89080  C 95011.71098474  .00000062  00000-0  11303-4 0  3739 
2 20262  82.5929 247.4865 1255194 160.2914 205.1552 12.44904834240549 
COBE R/B 
1 20323U 89089  B 95010.76655474  .00000052  00000-0  24988-4 0   716 
2 20323  97.1225  95.1996 0077407 198.9799 160.8504 14.42875670270810 
COSMOS 2053 
1 20389U 89100A   95012.38313664  .00007440  00000-0  93074-4 0   769 
2 20389  73.5119 332.3304 0005055 229.8175 130.2598 15.59982653283113 
COSMOS 2053 R/B 
1 20390U 89100  B 95010.57042474  .00000610  00000-0  23977-4 0  3780 
2 20390  73.5199  77.2765 0012422 328.6573  31.3876 15.25529686279868 
SPOT 2 R/B 
1 20443U 90005H   95012.60391386  .00000021  00000-0  23701-4 0   621 
2 20443  98.4323  82.1458 0010444 236.4148 123.6039 14.32147527259829 
1990-008B 
1 20453U 90008  B 95011.46730896  .00000975  00000-0  10317-3 0  3978 
2 20453  35.6428  26.5909 0520608  33.3937 329.8491 14.21956586256976 
COSMOS 2058 
1 20465U 90010A   95009.19206249  .00000277  00000-0  34464-4 0  5035 
2 20465  82.5016  88.6877 0022928 141.8482 218.4361 14.78758147266412 
COSMOS 2058 R/B 
1 20466U 90010B   95013.22701449  .00000118  00000-0  13616-4 0  9626 
2 20466  82.5051  89.3584 0022927 145.4466 214.8210 14.76339467266732 
OKEAN 2 R/B 
1 20511U 90018  B 95010.40968066  .00000050  00000-0  74348-5 0  9672 
2 20511  82.5231 357.9904 0017186 252.3989 107.5346 14.75150263261919 
HST 
1 20580U 90037B   95011.24035835  .00000514  00000-0  35907-4 0  5826 
2 20580  28.4707 339.4006 0006590 101.7948 258.3389 14.90774385 60462 
COSMOS 2082 R/B 
1 20625U 90046  B 95012.58007244 -.00000137  00000-0 -47230-4 0  8623 
2 20625  70.9918  50.4717 0015826 297.1011  62.8499 14.13671454239725 
COSMOS 2084 
1 20663U 90055  A 95011.16175669  .00000155  00000-0  22617-4 0   515 
2 20663  62.7987 192.1761 0076696 210.0219 149.6438 14.73445156244885 
COSMOS 2084 R/B(2) 
1 20666U 90055D   95008.89630989 -.00000056  00000-0  15518-4 0   709 
2 20666  62.7881 178.7009 0062334 222.8938 136.7279 14.75481035244922 
COSMOS 2098 R/B 
1 20775U 90078  B 95012.00178720  .00002730  00000-0  21127-3 0  3966 
2 20775  82.9600 196.0114 0957590 197.5712 159.0062 13.43763377213291 
COSMOS 2106 R/B 
1 20967U 90104  B 95012.18668156  .00000362  00000-0  14361-4 0  9806 
2 20967  82.5044 289.1280 0014358  93.2123 267.0751 15.21884242228568 
INFORMATOR 1 R/B 
1 21088U 91006  B 95009.43708104  .00000007  00000-0 -80351-5 0  8613 
2 21088  82.9399 347.0394 0023768 202.2604 157.7522 13.76119567198163 
COSMOS 2137 
1 21190U 91021A   95013.19303638  .00066024  80452-5  17928-3 0  5030 
2 21190  65.8211  77.6491 0008284 241.4341 118.5985 15.94353989217455 
GRO 
1 21225U 91027  B 95012.14282602  .00001783  00000-0  34731-4 0  1839 
2 21225  28.4598 220.5693 0003220  57.3146 302.7747 15.41920068 89216 
OKEAN 3 
1 21397U 91039A   95011.64660598  .00000275  00000-0  36347-4 0   749 
2 21397  82.5246 263.8174 0021998 304.6609  55.2528 14.76310534194262 
OKEAN 3 R/B 
1 21398U 91039  B 95010.22201604  .00000045  00000-0  66929-5 0  7711 
2 21398  82.5273 267.1433 0022593 317.1821  42.7627 14.74957910193932 
COSMOS 2151 
1 21422U 91042  A 95012.50422573  .00000157  00000-0  19450-4 0  3992 
2 21422  82.5097  31.7254 0019419 354.2187   5.8799 14.76019491192989 
COSMOS 2151 R/B 
1 21423U 91042  B 95010.50921744  .00000117  00000-0  17402-4 0  7675 
2 21423  82.4948  32.3349 0019965   8.5244 351.6299 14.75028285192612 
ERS-1 
1 21574U 91050A   95010.90445252  .00000078  00000-0  41952-4 0   496 
2 21574  98.5024  87.4279 0001310  67.4326 292.6996 14.35946326182512 
ERS-1 R/B 
1 21610U 91050F   95013.15260114 -.00000055  00000-0 -47975-5 0  6674 
2 21610  98.3097  70.3886 0002847 299.6437  60.4467 14.34608589182939 
UARS 
1 21701U 91063B   95010.87430614  .00000030  00000-0  23762-4 0  6419 
2 21701  56.9862  46.8940 0005407  99.4008 260.7637 14.96310166182027 
INTERCOSMOS 25 
1 21819U 91086  A 95010.13608402  .00000482  00000-0  96559-4 0  9840 
2 21819  82.5617 240.5141 1607785   4.9186 356.5707 11.86254809132587 
INTERCOSMOS 25 R/B 
1 21820U 91086B   95012.62102521  .00000095  00000-0  16054-4 0  6769 
2 21820  82.5620 239.8094 1613918   2.2030 358.5144 11.85114969132808 
JERS-1 
1 21867U 92007A   95010.86995861  .00000384  00000-0  36892-4 0  4834 
2 21867  97.7291  89.2327 0000578 122.2985 237.8247 14.98632195159489 
JERS R/B 
1 21868U 92007B   95012.89042657  .00120242  74613-5  44209-3 0  2746 
2 21868  97.7106 170.1011 0014337 306.4301  53.6054 15.88152822164863 
COSMOS 2180 R/B 
1 21876U 92008  B 95009.25149685  .00000066  00000-0  69687-4 0  5837 
2 21876  82.9258  83.1827 0031680 215.2797 144.6255 13.74329277145080 
COSMOS 2184 R/B 
1 21938U 92020  B 95010.37180606  .00000113  00000-0  11988-3 0  5982 
2 21938  82.9279 319.9926 0030901   2.4757 357.6542 13.74331803137364 
COSMOS 2219 
1 22219U 92076  A 95012.83983541 -.00000029  00000-0  10000-4 0  8310 
2 22219  71.0305  17.5856 0009870 295.6481  64.3632 14.12295516111064 
COSMOS 2219 R/B 
1 22220U 92076  B 95010.48332351 -.00000274  00000-0 -11645-3 0  3894 
2 22220  70.9946  12.7316 0013131 160.9952 199.1664 14.15194842110946 
COSMOS 2227 R/B 
1 22285U 92093  B 95012.27597301  .00000326  00000-0  19692-3 0  4630 
2 22285  71.0141 103.4685 0003936 336.9004  23.1936 14.13892489104129 
COSMOS 2237 R/B 
1 22566U 93016B   95012.91473540 -.00000029  00000-0  97490-5 0  3798 
2 22566  71.0014 327.2062 0010070 335.3620  24.7016 14.13884390 92987 
COSMOS 2238 
1 22585U 93018A   94342.80998250  .17175155  77267-5  13972-3 0  7221 
2 22585  64.9697  96.3533 0011659 251.3547 109.2080 16.51678064 96237 
COSMOS 2242 
1 22626U 93024A   95013.25079086  .00000199  00000-0  26999-4 0  5030 
2 22626  82.5265 121.7583 0026585  30.0562 330.2171 14.73579443 93788 
COSMOS 2244 
1 22643U 93029A   95013.23693192  .00000316  00000-0  10000-4 0  1439 
2 22643  65.0180 352.9774 0011613 290.3439  69.6461 15.52016474 97012 
COSMOS 2258 
1 22709U 93044A   95013.15417275  .00000316  00000-0  10000-4 0  1379 
2 22709  65.0314 354.3203 0015387 295.6600  64.2618 15.52079851 86119 
HST Array 
1 22920U 90037C   95012.15131628  .00004850  00000-0  37651-3 0  2689 
2 22920  28.4742 309.0205 0003792 305.7866  54.2370 14.99128071 60851 
